[{"OBJECT_NAME":"STARLINK-32557","OBJECT_ID":"2024-222P","EPOCH":"2026-03-09T12:26:29.487840","MEAN_MOTION":15.27588888,"ECCENTRICITY":2.871e-5,"INCLINATION":42.9936,"RA_OF_ASC_NODE":126.5426,"ARG_OF_PERICENTER":322.7448,"MEAN_ANOMALY":37.3384,"EPHEMERIS_TYPE":0,"CLASSIFICATION_TYPE":"U","NORAD_CAT_ID":62127,"ELEMENT_SET_NO":999,"REV_AT_EPOCH":7289,"BSTAR":0.00073800129,"MEAN_MOTION_DOT":0.00020107,"MEAN_MOTION_DDOT":0},{"OBJECT_NAME":"FENGYUN 1C DEB","OBJECT_ID":"1999-025BNP","EPOCH":"2026-03-08T20:32:05.282880","MEAN_MOTION":15.24866573,"ECCENTRICITY":0.00982022,"INCLINATION":98.3915,"RA_OF_ASC_NODE":217.6412,"ARG_OF_PERICENTER":158.7529,"MEAN_ANOMALY":201.7829,"EPHEMERIS_TYPE":0,"CLASSIFICATION_TYPE":"U","NORAD_CAT_ID":31281,"ELEMENT_SET_NO":999,"REV_AT_EPOCH":1008,"BSTAR":0.0025465872,"MEAN_MOTION_DOT":0.00073171,"MEAN_MOTION_DDOT":0}]
